[
    {
        "Altitude(m)": 617719.7938248188,
        "Argument of Periapsis(deg)": 0.0,
        "Eccentricity": 0.0,
        "Inclination(deg)": 60.0,
        "Latitude(deg)": -41.10270205092192,
        "Longitude(deg)": -64.90533876830605,
        "Mean Anomaly(deg)": -130.90909999999997,
        "RAAN(deg)": 184.99999999999997,
        "Satellite Name": "Test1 828",
        "Satellite Number": 828,
        "Semi-Major Axis(m)": 6980739.136638005,
        "Time(s)": 0
    },
    {
        "Altitude(m)": 617911.3297238112,
        "Argument of Periapsis(deg)": 0.00010418945913296404,
        "Eccentricity": 0.0,
        "Inclination(deg)": 60.0,
        "Latitude(deg)": -41.56589387379713,
        "Longitude(deg)": -64.40093150666507,
        "Mean Anomaly(deg)": -130.28899385453815,
        "RAAN(deg)": 184.99957995086024,
        "Satellite Name": "Test1 828",
        "Satellite Number": 828,
        "Semi-Major Axis(m)": 6980739.136638005,
        "Time(s)": 10
    }
]